{
  "norad_id": 62389,
  "name": "ICEYE-X47",
  "history": [
    {
      "epoch": "2026-04-15T21:12:11.884032Z",
      "apogee_km": 528.9033703351015,
      "perigee_km": 526.5429473328122,
      "latitude_deg": -3.3425237686247555e-05,
      "longitude_deg": 167.52940596268553,
      "height_km": 528.145580875481,
      "semi_major_axis_km": 6905.860158833956,
      "eccentricity": 0.0001709,
      "inclination_deg": 44.9972,
      "raan_deg": 329.6181,
      "arg_perigee_deg": 249.0181,
      "mean_anomaly_deg": 111.0513,
      "mean_motion_rev_day": 15.12781108
    },
    {
      "epoch": "2026-04-16T20:58:33.028896Z",
      "apogee_km": 528.9421802909492,
      "perigee_km": 526.4712694061973,
      "latitude_deg": -2.4929136001857387e-05,
      "longitude_deg": 164.6786091626023,
      "height_km": 528.0493661660205,
      "semi_major_axis_km": 6905.8437248485725,
      "eccentricity": 0.0001789,
      "inclination_deg": 44.9974,
      "raan_deg": 324.3317,
      "arg_perigee_deg": 253.8962,
      "mean_anomaly_deg": 106.1718,
      "mean_motion_rev_day": 15.12786508
    },
    {
      "epoch": "2026-04-17T20:44:53.841984Z",
      "apogee_km": 528.9576913944111,
      "perigee_km": 526.4199385239299,
      "latitude_deg": 7.562142191597168e-06,
      "longitude_deg": 161.82922176575823,
      "height_km": 527.9929944603124,
      "semi_major_axis_km": 6905.82581495917,
      "eccentricity": 0.00018374,
      "inclination_deg": 44.9974,
      "raan_deg": 319.0453,
      "arg_perigee_deg": 256.1301,
      "mean_anomaly_deg": 103.9372,
      "mean_motion_rev_day": 15.12792393
    },
    {
      "epoch": "2026-04-18T20:31:14.352672Z",
      "apogee_km": 528.9659107796051,
      "perigee_km": 526.3845181738334,
      "latitude_deg": -2.9785913171126982e-05,
      "longitude_deg": 158.98142726754287,
      "height_km": 527.9324290767001,
      "semi_major_axis_km": 6905.8122144767185,
      "eccentricity": 0.0001869,
      "inclination_deg": 44.9973,
      "raan_deg": 313.7593,
      "arg_perigee_deg": 258.5069,
      "mean_anomaly_deg": 101.5598,
      "mean_motion_rev_day": 15.12796862
    },
    {
      "epoch": "2026-04-19T20:17:34.668960Z",
      "apogee_km": 528.9758871873364,
      "perigee_km": 526.3558255836251,
      "latitude_deg": 1.7007890353646073e-06,
      "longitude_deg": 156.13401223580922,
      "height_km": 527.8852431011685,
      "semi_major_axis_km": 6905.8028563854805,
      "eccentricity": 0.0001897,
      "inclination_deg": 44.9972,
      "raan_deg": 308.4728,
      "arg_perigee_deg": 260.3623,
      "mean_anomaly_deg": 99.704,
      "mean_motion_rev_day": 15.12799937
    }
  ]
}